EUTELSAT 21B            
1 38992U 12062B   25290.13092874  .00000119  00000+0  00000+0 0  9993
2 38992   0.0841  33.0053 0002815 183.2448 238.3755  1.00273986 47398
EUTELSAT 70B            
1 39020U 12069A   25290.14063544 -.00000055  00000+0  00000+0 0  9996
2 39020   0.0681 347.6829 0004230 218.1611 301.2071  1.00271003 47075
EUTELSAT 117 WEST A     
1 39122U 13012A   25290.16364252 -.00000024  00000+0  00000+0 0  9996
2 39122   0.0135  30.4977 0002733 176.4838 121.0604  1.00271035 45990
EUTELSAT 7B             
1 39163U 13022A   25290.12806872  .00000037  00000+0  00000+0 0  9990
2 39163   0.0737  22.4006 0001840 285.2265 131.3678  1.00272959 45528
EXPRESS-AT1             
1 39612U 14010A   25290.13777544  .00000067  00000+0  00000+0 0  9994
2 39612   0.0016 181.6146 0000141  70.5782 239.3174  1.00272983 42380
EXPRESS-AT2             
1 39613U 14010B   25285.23079185 -.00000290  00000+0  00000+0 0  9995
2 39613   0.0174 228.3626 0000312 164.2420 211.3956  1.00268655 42017
EUTELSAT 3B             
1 39773U 14030A   25290.12720205  .00000009  00000+0  00000+0 0  9991
2 39773   0.0679 355.1525 0004499 205.6553 233.9933  1.00270375 41632
EUTELSAT 115 WEST B     
1 40425U 15010B   25289.96114799 -.00000037  00000+0  00000+0 0  9993
2 40425   0.0399  57.9188 0000014 126.4389  72.4962  1.00273038 38953
